0 FENGYUN 1C DEB
1 33656U 99025DER 13271.85854155  .00000405  00000-0  21400-3 0  2041
2 33656 098.8913 296.9928 0100647 265.9902 092.5785 14.16878724313066
0 FENGYUN 1C DEB
1 33656U 99025DER 13277.86098128  .00000415  00000-0  22032-3 0  2052
2 33656 098.8834 303.0330 0092886 249.8363 108.5636 14.16880696313910
